GLOBALSTAR M024         
1 25883U 99043A   24346.56230583 -.00000002  00000+0  22313-2 0  9997
2 25883  52.0021  83.9666 0002336 138.9776 317.9752 11.10162185 94026
GLOBALSTAR M027         
1 25884U 99043B   24346.59216845 -.00000091  00000+0 -10222-2 0  9991
2 25884  52.0168 156.5677 0022091  51.0240 309.2517 11.04371483120512
GLOBALSTAR M054         
1 25885U 99043C   24346.64739007  .00000022  00000+0  23795-2 0  9999
2 25885  52.0160 315.2186 0005761 218.1037 312.7864 11.39208223 98000
GLOBALSTAR M053         
1 25886U 99043D   24346.53387443 -.00000062  00000+0  19894-3 0  9992
2 25886  51.9978 252.1740 0003942 108.0233  64.0904 11.27660977 98271
GLOBALSTAR M058         
1 25907U 99049A   24346.74637787 -.00000138  00000+0 -72474-3 0  9992
2 25907  51.9937 249.6895 0001113 305.1366  54.9365 11.93191780130378
GLOBALSTAR M050         
1 25908U 99049B   24346.24265819 -.00000050  00000+0  42706-3 0  9998
2 25908  51.9998 272.7516 0009806  19.9350 146.7110 12.07446035130216
GLOBALSTAR M033         
1 25909U 99049C   24346.53138465 -.00000010  00000+0  78512-3 0  9997
2 25909  51.9879 156.7515 0011774 233.1085 126.8683 12.20292818512836
GLOBALSTAR M055         
1 25910U 99049D   24346.20814372 -.00000035  00000+0  50717-3 0  9995
2 25910  51.9983 177.5598 0008273  99.5929 260.5857 12.29416822145166
